{"updated_at":"2026-06-13T08:20:15.482518Z","count":200,"data":[{"NORAD_CAT_ID":"69329","OBJECT_NAME":"STARLINK-37733","OBJECT_ID":"2026-122A","EPOCH":"2026-06-12T20:00:01.999008","TLE_LINE1":"1 69329U 26122A   26163.83335647 -.00087370  00000-0 -45927-3 0  9996","TLE_LINE2":"2 69329  97.2836 193.0215 0000715  86.1891 128.1081 15.80850240  2650"},{"NORAD_CAT_ID":"69330","OBJECT_NAME":"STARLINK-37772","OBJECT_ID":"2026-122B","EPOCH":"2026-06-12T20:00:01.999008","TLE_LINE1":"1 69330U 26122B   26163.83335647 -.00010266  00000-0 -52972-4 0  9997","TLE_LINE2":"2 69330  97.2830 193.0346 0001220  70.2727 173.8991 15.80793109  2607"},{"NORAD_CAT_ID":"69331","OBJECT_NAME":"STARLINK-37768","OBJECT_ID":"2026-122C","EPOCH":"2026-06-12T20:00:01.999008","TLE_LINE1":"1 69331U 26122C   26163.83335647 -.00637619  00000-0 -35130-2 0  9990","TLE_LINE2":"2 69331  97.2832 193.0392 0001532  90.0966 163.2916 15.81209744  2600"},{"NORAD_CAT_ID":"69332","OBJECT_NAME":"STARLINK-37833","OBJECT_ID":"2026-122D","EPOCH":"2026-06-12T20:00:01.999008","TLE_LINE1":"1 69332U 26122D   26163.83335647 -.00063733  00000-0 -33377-3 0  9993","TLE_LINE2":"2 69332  97.2831 193.0406 0001312  82.7334 173.6315 15.80858345  2603"},{"NORAD_CAT_ID":"69333","OBJECT_NAME":"STARLINK-37818","OBJECT_ID":"2026-122E","EPOCH":"2026-06-12T20:00:01.999008","TLE_LINE1":"1 69333U 26122E   26163.83335647  .00050906  00000-0  26543-3 0  9997","TLE_LINE2":"2 69333  97.2833 193.0359 0001355  79.6876 165.6779 15.80776160  2650"},{"NORAD_CAT_ID":"69334","OBJECT_NAME":"STARLINK-37868","OBJECT_ID":"2026-122F","EPOCH":"2026-06-12T20:00:01.999008","TLE_LINE1":"1 69334U 26122F   26163.83335647 -.01189783  00000-0 -56308-2 0  9998","TLE_LINE2":"2 69334  97.2825 193.0475 0001275  80.9295 192.4378 15.85337763  2652"},{"NORAD_CAT_ID":"69335","OBJECT_NAME":"STARLINK-37877","OBJECT_ID":"2026-122G","EPOCH":"2026-06-12T20:00:01.999008","TLE_LINE1":"1 69335U 26122G   26163.83335647 -.01191524  00000-0 -56422-2 0  9992","TLE_LINE2":"2 69335  97.2825 193.0476 0001383  79.9162 194.2367 15.85328584  2654"},{"NORAD_CAT_ID":"69336","OBJECT_NAME":"STARLINK-37791","OBJECT_ID":"2026-122H","EPOCH":"2026-06-12T20:00:01.999008","TLE_LINE1":"1 69336U 26122H   26163.83335647 -.00688020  00000-0 -31388-2 0  9998","TLE_LINE2":"2 69336  97.2827 193.0498 0001397  88.4647 190.6399 15.85332532  2652"},{"NORAD_CAT_ID":"69337","OBJECT_NAME":"STARLINK-37765","OBJECT_ID":"2026-122J","EPOCH":"2026-06-12T20:00:01.999008","TLE_LINE1":"1 69337U 26122J   26163.83335647 -.02325047  00000-0 -11194-1 0  9990","TLE_LINE2":"2 69337  97.2829 193.0550 0001684 127.4991 162.4755 15.86061328  2701"},{"NORAD_CAT_ID":"69338","OBJECT_NAME":"STARLINK-37788","OBJECT_ID":"2026-122K","EPOCH":"2026-06-12T20:00:01.999008","TLE_LINE1":"1 69338U 26122K   26163.83335647 -.00923224  00000-0 -44854-2 0  9990","TLE_LINE2":"2 69338  97.2833 193.0568 0001242  81.7318 213.1238 15.84580181  2656"},{"NORAD_CAT_ID":"69339","OBJECT_NAME":"STARLINK-37743","OBJECT_ID":"2026-122L","EPOCH":"2026-06-12T20:00:01.999008","TLE_LINE1":"1 69339U 26122L   26163.83335647 -.01373158  00000-0 -78108-2 0  9996","TLE_LINE2":"2 69339  97.2836 193.0546 0001596  84.7785 204.5120 15.81864006  2651"},{"NORAD_CAT_ID":"69340","OBJECT_NAME":"STARLINK-37780","OBJECT_ID":"2026-122M","EPOCH":"2026-06-12T20:00:01.999008","TLE_LINE1":"1 69340U 26122M   26163.83335647 -.02362948  00000-0 -12937-1 0  9991","TLE_LINE2":"2 69340  97.2836 193.0576 0001581  72.7276 221.3160 15.82856553  2708"},{"NORAD_CAT_ID":"69325","OBJECT_NAME":"QIANFAN-163","OBJECT_ID":"2026-121A","EPOCH":"2026-06-07T22:57:09.243936","TLE_LINE1":"1 69325U 26121A   26158.95635699  .00000032  00000-0  25988-4 0  9992","TLE_LINE2":"2 69325  89.0167 301.4498 0019200 214.2671 145.7248 13.60351284   905"},{"NORAD_CAT_ID":"69326","OBJECT_NAME":"QIANFAN-164","OBJECT_ID":"2026-121B","EPOCH":"2026-06-11T09:53:52.001952","TLE_LINE1":"1 69326U 26121B   26162.41240743  .00000112  00000-0  13228-3 0  9993","TLE_LINE2":"2 69326  89.0157 301.0998 0019383 205.3125 154.7084 13.60355109  1373"},{"NORAD_CAT_ID":"69327","OBJECT_NAME":"CZ-12B R/B","OBJECT_ID":"2026-121C","EPOCH":"2026-06-12T19:29:03.833088","TLE_LINE1":"1 69327U 26121C   26163.81184992  .00000159  00000-0  77187-4 0  9998","TLE_LINE2":"2 69327  89.0314 300.8955 0195604  21.0459 339.8631 14.04085054  1612"},{"NORAD_CAT_ID":"69310","OBJECT_NAME":"STARLINK-37794","OBJECT_ID":"2026-119Q","EPOCH":"2026-06-12T19:54:11.213280","TLE_LINE1":"1 69310U 26119Q   26163.82929645  .00191391  00000-0  97454-3 0  9997","TLE_LINE2":"2 69310  97.2828 189.4475 0001258  91.9105 268.2307 15.80897459  3351"},{"NORAD_CAT_ID":"69311","OBJECT_NAME":"STARLINK-37795","OBJECT_ID":"2026-119R","EPOCH":"2026-06-12T20:00:01.999008","TLE_LINE1":"1 69311U 26119R   26163.83335647 -.01844413  00000-0 -20225-1 0  9995","TLE_LINE2":"2 69311  97.2836 189.4230 0001724  97.5889 220.4057 15.66138864  3342"},{"NORAD_CAT_ID":"69312","OBJECT_NAME":"STARLINK-37790","OBJECT_ID":"2026-119S","EPOCH":"2026-06-12T19:52:18.590880","TLE_LINE1":"1 69312U 26119S   26163.82799295  .00033947  00000-0  17722-3 0  9997","TLE_LINE2":"2 69312  97.2832 189.4489 0000979  51.2784 308.8572 15.80823439  3356"},{"NORAD_CAT_ID":"69313","OBJECT_NAME":"STARLINK-37676","OBJECT_ID":"2026-119T","EPOCH":"2026-06-12T19:49:23.998944","TLE_LINE1":"1 69313U 26119T   26163.82597221  .00176021  00000-0  89749-3 0  9992","TLE_LINE2":"2 69313  97.2830 189.4514 0000676  32.3823 327.7487 15.80908328  3358"},{"NORAD_CAT_ID":"69314","OBJECT_NAME":"STARLINK-37617","OBJECT_ID":"2026-119U","EPOCH":"2026-06-12T19:48:08.388576","TLE_LINE1":"1 69314U 26119U   26163.82509709  .00099777  00000-0  51501-3 0  9994","TLE_LINE2":"2 69314  97.2834 189.4525 0001477  83.9421 276.2016 15.80845603  3353"},{"NORAD_CAT_ID":"69315","OBJECT_NAME":"STARLINK-37627","OBJECT_ID":"2026-119V","EPOCH":"2026-06-12T19:47:41.322048","TLE_LINE1":"1 69315U 26119V   26163.82478382  .00078393  00000-0  40583-3 0  9996","TLE_LINE2":"2 69315  97.2835 189.4533 0001605  77.7767 282.3681 15.80842955  3354"},{"NORAD_CAT_ID":"69316","OBJECT_NAME":"STARLINK-37738","OBJECT_ID":"2026-119W","EPOCH":"2026-06-12T19:50:55.095648","TLE_LINE1":"1 69316U 26119W   26163.82702657  .00124648  00000-0  64131-3 0  9992","TLE_LINE2":"2 69316  97.2827 189.4499 0001275  64.9931 295.1470 15.80847751  3358"},{"NORAD_CAT_ID":"69317","OBJECT_NAME":"STARLINK-37799","OBJECT_ID":"2026-119X","EPOCH":"2026-06-12T19:48:42.386976","TLE_LINE1":"1 69317U 26119X   26163.82549059  .00112259  00000-0  57836-3 0  9997","TLE_LINE2":"2 69317  97.2830 189.4521 0001111  97.5363 262.6031 15.80851755  2102"},{"NORAD_CAT_ID":"69318","OBJECT_NAME":"STARLINK-37802","OBJECT_ID":"2026-119Y","EPOCH":"2026-06-12T19:45:47.672352","TLE_LINE1":"1 69318U 26119Y   26163.82346843  .00084758  00000-0  43847-3 0  9993","TLE_LINE2":"2 69318  97.2833 189.4553 0001243  88.0118 272.1292 15.80839887  3355"},{"NORAD_CAT_ID":"69319","OBJECT_NAME":"STARLINK-37803","OBJECT_ID":"2026-119Z","EPOCH":"2026-06-12T20:00:01.999008","TLE_LINE1":"1 69319U 26119Z   26163.83335647 -.00668749  00000-0 -43941-2 0  9999","TLE_LINE2":"2 69319  97.2837 189.4670 0001351  72.9714 343.1595 15.77403235  3292"},{"NORAD_CAT_ID":"69320","OBJECT_NAME":"OBJECT A","OBJECT_ID":"2026-120A","EPOCH":"2026-06-07T11:06:12.288672","TLE_LINE1":"1 69320U 26120A   26158.46264223  .00009002  00000-0  24096-3 0  9997","TLE_LINE2":"2 69320  54.9967  71.5399 0009599 294.3963  65.6063 15.38803685  1198"},{"NORAD_CAT_ID":"69321","OBJECT_NAME":"OBJECT B","OBJECT_ID":"2026-120B","EPOCH":"2026-06-12T20:25:49.487808","TLE_LINE1":"1 69321U 26120B   26163.85126722  .00010184  00000-0  27081-3 0  9998","TLE_LINE2":"2 69321  54.9987  47.2543 0009565 318.2550  41.7747 15.38850418  2026"},{"NORAD_CAT_ID":"69322","OBJECT_NAME":"OBJECT C","OBJECT_ID":"2026-120C","EPOCH":"2026-06-07T21:56:00.773376","TLE_LINE1":"1 69322U 26120C   26158.91389784  .00016153  00000-0  41736-3 0  9994","TLE_LINE2":"2 69322  54.9968  69.4792 0009850 309.3319  50.6835 15.39284097  1266"},{"NORAD_CAT_ID":"69323","OBJECT_NAME":"OBJECT D","OBJECT_ID":"2026-120D","EPOCH":"2026-06-12T20:21:03.564288","TLE_LINE1":"1 69323U 26120D   26163.84795792  .00004137  00000-0  11572-3 0  9997","TLE_LINE2":"2 69323  54.9989  47.2306 0010756 331.4602  28.5836 15.38944931  2022"}]}