OBJECT_NAME,OBJECT_ID,EPOCH,MEAN_MOTION,ECCENTRICITY,INCLINATION,RA_OF_ASC_NODE,ARG_OF_PERICENTER,MEAN_ANOMALY,EPHEMERIS_TYPE,CLASSIFICATION_TYPE,NORAD_CAT_ID,ELEMENT_SET_NO,REV_AT_EPOCH,BSTAR,MEAN_MOTION_DOT,MEAN_MOTION_DDOT
STARLINK-37794,2026-119Q,2026-06-12T19:54:11.213280,15.80897459,.0001258,97.2828,189.4475,91.9105,268.2307,0,U,69310,999,335,.97454E-3,.191391E-2,0
STARLINK-37795,2026-119R,2026-06-12T20:00:01.999008,15.66138864,.0001724,97.2836,189.4230,97.5889,220.4057,0,U,69311,999,334,-.20225E-1,-.1844413E-1,0
STARLINK-37790,2026-119S,2026-06-12T19:52:18.590880,15.80823439,.0000979,97.2832,189.4489,51.2784,308.8572,0,U,69312,999,335,.17722E-3,.33947E-3,0
STARLINK-37676,2026-119T,2026-06-12T19:49:23.998944,15.80908328,.0000676,97.2830,189.4514,32.3823,327.7487,0,U,69313,999,335,.89749E-3,.176021E-2,0
STARLINK-37617,2026-119U,2026-06-12T19:48:08.388576,15.80845603,.0001477,97.2834,189.4525,83.9421,276.2016,0,U,69314,999,335,.51501E-3,.99777E-3,0
STARLINK-37627,2026-119V,2026-06-12T19:47:41.322048,15.80842955,.0001605,97.2835,189.4533,77.7767,282.3681,0,U,69315,999,335,.40583E-3,.78393E-3,0
STARLINK-37738,2026-119W,2026-06-12T19:50:55.095648,15.80847751,.0001275,97.2827,189.4499,64.9931,295.1470,0,U,69316,999,335,.64131E-3,.124648E-2,0
STARLINK-37799,2026-119X,2026-06-12T19:48:42.386976,15.80851755,.0001111,97.2830,189.4521,97.5363,262.6031,0,U,69317,999,210,.57836E-3,.112259E-2,0
STARLINK-37802,2026-119Y,2026-06-12T19:45:47.672352,15.80839887,.0001243,97.2833,189.4553,88.0118,272.1292,0,U,69318,999,335,.43847E-3,.84758E-3,0
STARLINK-37803,2026-119Z,2026-06-12T20:00:01.999008,15.77403235,.0001351,97.2837,189.4670,72.9714,343.1595,0,U,69319,999,329,-.43941E-2,-.668749E-2,0
GUOWANG TEST OBJECT A,2026-120A,2026-06-07T11:06:12.288672,15.38803685,.00095994,54.9967,71.5399,294.3963,65.6063,0,U,69320,999,119,.24095813E-3,.9002E-4,0
GUOWANG TEST OBJECT B,2026-120B,2026-06-12T20:25:49.487808,15.38850418,.0009565,54.9987,47.2543,318.2550,41.7747,0,U,69321,999,202,.27081E-3,.10184E-3,0
GUOWANG TEST OBJECT C,2026-120C,2026-06-07T21:56:00.773376,15.39284097,.00098504,54.9968,69.4792,309.3319,50.6835,0,U,69322,999,126,.41735581E-3,.16153E-3,0
GUOWANG TEST OBJECT D,2026-120D,2026-06-12T20:21:03.564288,15.38944931,.0010756,54.9989,47.2306,331.4602,28.5836,0,U,69323,999,202,.11572E-3,.4137E-4,0
QIANFAN-163,2026-121A,2026-06-07T22:57:09.243936,13.60351284,.00192,89.0167,301.4498,214.2671,145.7248,0,U,69325,999,90,.25988E-4,.32E-6,0
QIANFAN-164,2026-121B,2026-06-11T09:53:52.001952,13.60355109,.0019383,89.0157,301.0998,205.3125,154.7084,0,U,69326,999,137,.13228E-3,.112E-5,0
CZ-12B R/B,2026-121C,2026-06-12T19:29:03.833088,14.04085054,.0195604,89.0314,300.8955,21.0459,339.8631,0,U,69327,999,161,.77187E-4,.159E-5,0
STARLINK-37733,2026-122A,2026-06-12T20:00:01.999008,15.80850240,.0000715,97.2836,193.0215,86.1891,128.1081,0,U,69329,999,265,-.45927E-3,-.8737E-3,0
STARLINK-37772,2026-122B,2026-06-12T20:00:01.999008,15.80793109,.000122,97.2830,193.0346,70.2727,173.8991,0,U,69330,999,260,-.52972E-4,-.10266E-3,0
STARLINK-37768,2026-122C,2026-06-12T20:00:01.999008,15.81209744,.0001532,97.2832,193.0392,90.0966,163.2916,0,U,69331,999,260,-.3513E-2,-.637619E-2,0
STARLINK-37833,2026-122D,2026-06-12T20:00:01.999008,15.80858345,.0001312,97.2831,193.0406,82.7334,173.6315,0,U,69332,999,260,-.33377E-3,-.63733E-3,0
STARLINK-37818,2026-122E,2026-06-12T20:00:01.999008,15.80776160,.0001355,97.2833,193.0359,79.6876,165.6779,0,U,69333,999,265,.26543E-3,.50906E-3,0
STARLINK-37868,2026-122F,2026-06-12T20:00:01.999008,15.85337763,.0001275,97.2825,193.0475,80.9295,192.4378,0,U,69334,999,265,-.56308E-2,-.1189783E-1,0
STARLINK-37877,2026-122G,2026-06-12T20:00:01.999008,15.85328584,.0001383,97.2825,193.0476,79.9162,194.2367,0,U,69335,999,265,-.56422E-2,-.1191524E-1,0
STARLINK-37791,2026-122H,2026-06-12T20:00:01.999008,15.85332532,.0001397,97.2827,193.0498,88.4647,190.6399,0,U,69336,999,265,-.31388E-2,-.68802E-2,0
STARLINK-37765,2026-122J,2026-06-12T20:00:01.999008,15.86061328,.0001684,97.2829,193.0550,127.4991,162.4755,0,U,69337,999,270,-.11194E-1,-.2325047E-1,0
STARLINK-37788,2026-122K,2026-06-12T20:00:01.999008,15.84580181,.0001242,97.2833,193.0568,81.7318,213.1238,0,U,69338,999,265,-.44854E-2,-.923224E-2,0
STARLINK-37743,2026-122L,2026-06-12T20:00:01.999008,15.81864006,.0001596,97.2836,193.0546,84.7785,204.5120,0,U,69339,999,265,-.78108E-2,-.1373158E-1,0
STARLINK-37780,2026-122M,2026-06-12T20:00:01.999008,15.82856553,.0001581,97.2836,193.0576,72.7276,221.3160,0,U,69340,999,270,-.12937E-1,-.2362948E-1,0
